{"spkid": "50444574", "covariance": {"epoch": "2458977.5", "labels": ["e", "q", "tp", "node", "peri", "i"], "data": [["1.987803945916128E-15", "-4.558093445092484E-15", "1.220418191724481E-13", "3.700176961559808E-13", "-4.477717623966376E-13", "-9.393508220641869E-14"], ["-4.558093445092484E-15", "1.045357925683172E-14", "-2.955003917100741E-13", "-8.297994967656126E-13", "9.929998517711207E-13", "2.172433099044026E-13"], ["1.220418191724481E-13", "-2.955003917100741E-13", "3.580673537632052E-10", "-3.208108284666272E-10", "6.331597872111728E-10", "1.013073356283061E-11"], ["3.700176961559808E-13", "-8.297994967656126E-13", "-3.208108284666272E-10", "4.490292963428069E-9", "-4.826337325302047E-9", "-7.91200590609025E-11"], ["-4.477717623966376E-13", "9.929998517711207E-13", "6.331597872111728E-10", "-4.826337325302047E-9", "5.465737402755296E-9", "1.024265841209998E-10"], ["-9.393508220641869E-14", "2.172433099044026E-13", "1.013073356283061E-11", "-7.91200590609025E-11", "1.024265841209998E-10", "5.195481647260845E-11"]], "elements": [{"label": "e", "title": "eccentricity", "value": ".6007666202213889", "units": null, "sigma": 4.45847950081205e-08, "name": "e"}, {"label": "q", "units": "au", "title": "perihelion distance", "value": ".9237887829422591", "name": "q", "sigma": 1.0224274671991e-07}, {"value": "2458760.541989257188", "title": "time of perihelion passage", "units": "TDB", "sigma": 1.89226677232151e-05, "name": "tp", "label": "tp"}, {"units": "deg", "value": "91.99057340544222", "title": "longitude of the ascending node", "sigma": 6.70096482861093e-05, "name": "om", "label": "node"}, {"sigma": 7.39306256077635e-05, "name": "w", "value": "90.68779469881245", "title": "argument of perihelion", "units": "deg", "label": "peri"}, {"title": "inclination", "value": "3.237278397770268", "units": "deg", "sigma": 7.20796895613518e-06, "name": "i", "label": "i"}]}, "elements": [{"name": "e", "sigma": "4.5021E-8", "units": null, "title": "eccentricity", "value": ".6031838312329469", "label": "e"}, {"name": "a", "sigma": "4.103E-9", "title": "semi-major axis", "value": "2.31161787987089", "units": "au", "label": "a"}, {"name": "q", "sigma": "1.0265E-7", "units": "au", "value": ".9172873507437844", "title": "perihelion distance", "label": "q"}, {"label": "i", "units": "deg", "title": "inclination; angle with respect to x-y ecliptic plane", "value": "3.241080177168853", "name": "i", "sigma": "7.2093E-6"}, {"sigma": "6.7056E-5", "name": "om", "units": "deg", "title": "longitude of the ascending node", "value": "91.85589236817336", "label": "node"}, {"label": "peri", "title": "argument of perihelion", "value": "90.76356037512925", "units": "deg", "name": "w", "sigma": "7.3941E-5"}, {"label": "M", "name": "ma", "sigma": "5.293E-6", "units": "deg", "title": "mean anomaly", "value": "324.3653900521239"}, {"value": "2461327.569699534231", "title": "time of perihelion passage", "units": "TDB", "sigma": "1.9042E-5", "name": "tp", "label": "tp"}, {"value": "1283.726464222174", "title": "sidereal orbital period", "units": "d", "sigma": "3.4178E-6", "name": "per", "label": "period"}, {"name": "n", "sigma": "7.4663E-10", "units": "deg/d", "title": "mean motion", "value": ".2804335736882456", "label": "n"}, {"label": "Q", "units": "au", "title": "aphelion distance", "value": "3.705948408997995", "name": "ad", "sigma": "6.5779E-9"}], "epoch": "2461200.5"}